[{"OBJECT_NAME":"BANDWAGON-2 OBJECT AD","OBJECT_ID":"2024-247AD","EPOCH":"2026-03-09T10:19:59.107872","MEAN_MOTION":15.43947936,"ECCENTRICITY":0.0008469,"INCLINATION":44.9956,"RA_OF_ASC_NODE":92.5354,"ARG_OF_PERICENTER":14.9097,"MEAN_ANOMALY":345.204,"EPHEMERIS_TYPE":0,"CLASSIFICATION_TYPE":"U","NORAD_CAT_ID":62404,"ELEMENT_SET_NO":999,"REV_AT_EPOCH":6800,"BSTAR":0.0008456968,"MEAN_MOTION_DOT":0.00039225,"MEAN_MOTION_DDOT":0},{"OBJECT_NAME":"STARLINK-36527","OBJECT_ID":"2026-020Q","EPOCH":"2026-03-09T22:00:01.999584","MEAN_MOTION":15.57466901,"ECCENTRICITY":0.00017124,"INCLINATION":42.9994,"RA_OF_ASC_NODE":140.4776,"ARG_OF_PERICENTER":283.3202,"MEAN_ANOMALY":141.7804,"EPHEMERIS_TYPE":0,"CLASSIFICATION_TYPE":"U","NORAD_CAT_ID":67631,"ELEMENT_SET_NO":999,"REV_AT_EPOCH":604,"BSTAR":-0.028699589,"MEAN_MOTION_DOT":-0.01911252,"MEAN_MOTION_DDOT":0}]
